CCSDS_OMM_VERS = 2.0
CREATION_DATE  = 
ORIGINATOR     = 

OBJECT_NAME    = SL-4 R/B
OBJECT_ID      = 2025-310B
CENTER_NAME    = EARTH
REF_FRAME      = TEME
TIME_SYSTEM    = UTC
MEAN_ELEMENT_THEORY = SGP/SGP4

EPOCH          = 2026-01-16T23:50:42.252576
MEAN_MOTION    = 15.60475440
ECCENTRICITY   = .02604514
INCLINATION    = 97.9619
RA_OF_ASC_NODE = 29.0226
ARG_OF_PERICENTER = 355.4081
MEAN_ANOMALY   = 4.4786

EPHEMERIS_TYPE = 0
CLASSIFICATION_TYPE = U
NORAD_CAT_ID   = 67235
ELEMENT_SET_NO = 999
REV_AT_EPOCH   = 348
BSTAR          = .53163707E-3
MEAN_MOTION_DOT = .263627E-2
MEAN_MOTION_DDOT = .2445971E-5

CCSDS_OMM_VERS = 2.0
CREATION_DATE  = 
ORIGINATOR     = 

OBJECT_NAME    = HULIANWANG DIGUI-128
OBJECT_ID      = 2025-311A
CENTER_NAME    = EARTH
REF_FRAME      = TEME
TIME_SYSTEM    = UTC
MEAN_ELEMENT_THEORY = SGP/SGP4

EPOCH          = 2026-01-15T15:13:38.164800
MEAN_MOTION    = 13.90210717
ECCENTRICITY   = .00065679
INCLINATION    = 50.0101
RA_OF_ASC_NODE = 313.4332
ARG_OF_PERICENTER = 346.4900
MEAN_ANOMALY   = 13.5822

EPHEMERIS_TYPE = 0
CLASSIFICATION_TYPE = U
NORAD_CAT_ID   = 67236
ELEMENT_SET_NO = 999
REV_AT_EPOCH   = 288
BSTAR          = .81614162E-4
MEAN_MOTION_DOT = -.45E-6
MEAN_MOTION_DDOT = 0

CCSDS_OMM_VERS = 2.0
CREATION_DATE  = 
ORIGINATOR     = 

OBJECT_NAME    = HULIANWANG DIGUI-129
OBJECT_ID      = 2025-311B
CENTER_NAME    = EARTH
REF_FRAME      = TEME
TIME_SYSTEM    = UTC
MEAN_ELEMENT_THEORY = SGP/SGP4

EPOCH          = 2026-01-15T15:15:30.121920
MEAN_MOTION    = 13.90166973
ECCENTRICITY   = .00078152
INCLINATION    = 50.0090
RA_OF_ASC_NODE = 313.4372
ARG_OF_PERICENTER = 348.0369
MEAN_ANOMALY   = 12.0343

EPHEMERIS_TYPE = 0
CLASSIFICATION_TYPE = U
NORAD_CAT_ID   = 67237
ELEMENT_SET_NO = 999
REV_AT_EPOCH   = 288
BSTAR          = .76372457E-4
MEAN_MOTION_DOT = -.51E-6
MEAN_MOTION_DDOT = 0

CCSDS_OMM_VERS = 2.0
CREATION_DATE  = 
ORIGINATOR     = 

OBJECT_NAME    = HULIANWANG DIGUI-130
OBJECT_ID      = 2025-311C
CENTER_NAME    = EARTH
REF_FRAME      = TEME
TIME_SYSTEM    = UTC
MEAN_ELEMENT_THEORY = SGP/SGP4

EPOCH          = 2026-01-15T15:25:02.844192
MEAN_MOTION    = 13.90218602
ECCENTRICITY   = .00077665
INCLINATION    = 50.0071
RA_OF_ASC_NODE = 313.4663
ARG_OF_PERICENTER = 325.4977
MEAN_ANOMALY   = 34.5417

EPHEMERIS_TYPE = 0
CLASSIFICATION_TYPE = U
NORAD_CAT_ID   = 67238
ELEMENT_SET_NO = 999
REV_AT_EPOCH   = 288
BSTAR          = .84076042E-4
MEAN_MOTION_DOT = -.42E-6
MEAN_MOTION_DDOT = 0

CCSDS_OMM_VERS = 2.0
CREATION_DATE  = 
ORIGINATOR     = 

OBJECT_NAME    = HULIANWANG DIGUI-131
OBJECT_ID      = 2025-311D
CENTER_NAME    = EARTH
REF_FRAME      = TEME
TIME_SYSTEM    = UTC
MEAN_ELEMENT_THEORY = SGP/SGP4

EPOCH          = 2026-01-15T15:29:31.742592
MEAN_MOTION    = 13.90205630
ECCENTRICITY   = .00093773
INCLINATION    = 50.0066
RA_OF_ASC_NODE = 313.4811
ARG_OF_PERICENTER = 332.8334
MEAN_ANOMALY   = 27.2073

EPHEMERIS_TYPE = 0
CLASSIFICATION_TYPE = U
NORAD_CAT_ID   = 67239
ELEMENT_SET_NO = 999
REV_AT_EPOCH   = 288
BSTAR          = .80418412E-4
MEAN_MOTION_DOT = -.46E-6
MEAN_MOTION_DDOT = 0

CCSDS_OMM_VERS = 2.0
CREATION_DATE  = 
ORIGINATOR     = 

OBJECT_NAME    = HULIANWANG DIGUI-132
OBJECT_ID      = 2025-311E
CENTER_NAME    = EARTH
REF_FRAME      = TEME
TIME_SYSTEM    = UTC
MEAN_ELEMENT_THEORY = SGP/SGP4

EPOCH          = 2026-01-15T15:20:36.617280
MEAN_MOTION    = 13.90231481
ECCENTRICITY   = .00084652
INCLINATION    = 50.0078
RA_OF_ASC_NODE = 313.4522
ARG_OF_PERICENTER = 339.4838
MEAN_ANOMALY   = 20.5719

EPHEMERIS_TYPE = 0
CLASSIFICATION_TYPE = U
NORAD_CAT_ID   = 67240
ELEMENT_SET_NO = 999
REV_AT_EPOCH   = 288
BSTAR          = .74510039E-4
MEAN_MOTION_DOT = -.53E-6
MEAN_MOTION_DDOT = 0

CCSDS_OMM_VERS = 2.0
CREATION_DATE  = 
ORIGINATOR     = 

OBJECT_NAME    = HULIANWANG DIGUI-133
OBJECT_ID      = 2025-311F
CENTER_NAME    = EARTH
REF_FRAME      = TEME
TIME_SYSTEM    = UTC
MEAN_ELEMENT_THEORY = SGP/SGP4

EPOCH          = 2026-01-15T10:07:27.512544
MEAN_MOTION    = 13.90209467
ECCENTRICITY   = .00075869
INCLINATION    = 50.0122
RA_OF_ASC_NODE = 314.3128
ARG_OF_PERICENTER = 342.9599
MEAN_ANOMALY   = 17.1044

EPHEMERIS_TYPE = 0
CLASSIFICATION_TYPE = U
NORAD_CAT_ID   = 67241
ELEMENT_SET_NO = 999
REV_AT_EPOCH   = 285
BSTAR          = .86445611E-4
MEAN_MOTION_DOT = -.39E-6
MEAN_MOTION_DDOT = 0

CCSDS_OMM_VERS = 2.0
CREATION_DATE  = 
ORIGINATOR     = 

OBJECT_NAME    = HULIANWANG DIGUI-134
OBJECT_ID      = 2025-311G
CENTER_NAME    = EARTH
REF_FRAME      = TEME
TIME_SYSTEM    = UTC
MEAN_ELEMENT_THEORY = SGP/SGP4

EPOCH          = 2026-01-15T15:19:34.653792
MEAN_MOTION    = 13.90195582
ECCENTRICITY   = .00067014
INCLINATION    = 50.0053
RA_OF_ASC_NODE = 313.4415
ARG_OF_PERICENTER = 332.6519
MEAN_ANOMALY   = 27.4026

EPHEMERIS_TYPE = 0
CLASSIFICATION_TYPE = U
NORAD_CAT_ID   = 67242
ELEMENT_SET_NO = 999
REV_AT_EPOCH   = 288
BSTAR          = .83319738E-4
MEAN_MOTION_DOT = -.43E-6
MEAN_MOTION_DDOT = 0

CCSDS_OMM_VERS = 2.0
CREATION_DATE  = 
ORIGINATOR     = 

OBJECT_NAME    = HULIANWANG DIGUI-135
OBJECT_ID      = 2025-311H
CENTER_NAME    = EARTH
REF_FRAME      = TEME
TIME_SYSTEM    = UTC
MEAN_ELEMENT_THEORY = SGP/SGP4

EPOCH          = 2026-01-15T18:49:37.039872
MEAN_MOTION    = 13.90184579
ECCENTRICITY   = .00079217
INCLINATION    = 50.0039
RA_OF_ASC_NODE = 312.8763
ARG_OF_PERICENTER = 335.6159
MEAN_ANOMALY   = 24.4364

EPHEMERIS_TYPE = 0
CLASSIFICATION_TYPE = U
NORAD_CAT_ID   = 67243
ELEMENT_SET_NO = 999
REV_AT_EPOCH   = 290
BSTAR          = .79456064E-4
MEAN_MOTION_DOT = -.47E-6
MEAN_MOTION_DDOT = 0

CCSDS_OMM_VERS = 2.0
CREATION_DATE  = 
ORIGINATOR     = 

OBJECT_NAME    = HULIANWANG DIGUI-136
OBJECT_ID      = 2025-311J
CENTER_NAME    = EARTH
REF_FRAME      = TEME
TIME_SYSTEM    = UTC
MEAN_ELEMENT_THEORY = SGP/SGP4

EPOCH          = 2026-01-15T15:16:20.220960
MEAN_MOTION    = 13.90230435
ECCENTRICITY   = .00068454
INCLINATION    = 50.0111
RA_OF_ASC_NODE = 313.4448
ARG_OF_PERICENTER = 341.4891
MEAN_ANOMALY   = 18.5758

EPHEMERIS_TYPE = 0
CLASSIFICATION_TYPE = U
NORAD_CAT_ID   = 67244
ELEMENT_SET_NO = 999
REV_AT_EPOCH   = 288
BSTAR          = .81175873E-4
MEAN_MOTION_DOT = -.45E-6
MEAN_MOTION_DDOT = 0

CCSDS_OMM_VERS = 2.0
CREATION_DATE  = 
ORIGINATOR     = 

OBJECT_NAME    = CZ-8A R/B
OBJECT_ID      = 2025-311K
CENTER_NAME    = EARTH
REF_FRAME      = TEME
TIME_SYSTEM    = UTC
MEAN_ELEMENT_THEORY = SGP/SGP4

EPOCH          = 2026-01-16T22:51:05.846400
MEAN_MOTION    = 14.12608451
ECCENTRICITY   = .0088966
INCLINATION    = 50.0053
RA_OF_ASC_NODE = 305.0500
ARG_OF_PERICENTER = 157.8565
MEAN_ANOMALY   = 202.6222

EPHEMERIS_TYPE = 0
CLASSIFICATION_TYPE = U
NORAD_CAT_ID   = 67245
ELEMENT_SET_NO = 999
REV_AT_EPOCH   = 311
BSTAR          = -.31223551E-4
MEAN_MOTION_DOT = -.216E-5
MEAN_MOTION_DDOT = 0

CCSDS_OMM_VERS = 2.0
CREATION_DATE  = 
ORIGINATOR     = 

OBJECT_NAME    = FENGYUN 4C
OBJECT_ID      = 2025-312A
CENTER_NAME    = EARTH
REF_FRAME      = TEME
TIME_SYSTEM    = UTC
MEAN_ELEMENT_THEORY = SGP/SGP4

EPOCH          = 2026-01-17T06:05:13.995744
MEAN_MOTION    = 1.00257313
ECCENTRICITY   = .0002428
INCLINATION    = 0.0717
RA_OF_ASC_NODE = 237.0100
ARG_OF_PERICENTER = 52.9962
MEAN_ANOMALY   = 51.0100

EPHEMERIS_TYPE = 0
CLASSIFICATION_TYPE = U
NORAD_CAT_ID   = 67246
ELEMENT_SET_NO = 999
REV_AT_EPOCH   = 26
BSTAR          = 0
MEAN_MOTION_DOT = -.308E-5
MEAN_MOTION_DDOT = 0

